STARLINK-35069          
1 66268U 25247D   25330.15076271  .00064284  00000+0  16028-2 0  9992
2 66268  53.1607 315.7598 0001392 108.0280 252.0876 15.39635095  5139
STARLINK-34910          
1 66269U 25247E   25330.16670139 -.01988719  00000+0 -53165-1 0  9990
2 66269  53.1599 314.3196 0001050 109.4830 287.8259 15.41066430  5221
STARLINK-35757          
1 66270U 25247F   25330.15042928  .00063999  00000+0  15962-2 0  9995
2 66270  53.1606 315.7585 0001577  95.2742 264.8443 15.39625744  5188
STARLINK-35745          
1 66271U 25247G   25330.16670139  .00013584  00000+0  34921-3 0  9990
2 66271  53.1604 315.6348 0001394  90.2581  24.0119 15.39598437  5270
STARLINK-35741          
1 66272U 25247H   25330.16670139  .00013673  00000+0  35143-3 0  9997
2 66272  53.1603 315.6312 0001432  92.2981  23.8289 15.39600158  5279
STARLINK-35730          
1 66273U 25247J   25330.16670139  .00025806  00000+0  65390-3 0  9996
2 66273  53.1599 315.5833 0001925  92.1417  47.9181 15.39574377  5272
STARLINK-35760          
1 66274U 25247K   25330.16670139  .00014342  00000+0  36807-3 0  9991
2 66274  53.1600 315.5796 0001932  89.2834  52.5980 15.39602237  4952
STARLINK-35752          
1 66275U 25247L   25330.16670139  .00017246  00000+0  44047-3 0  9993
2 66275  53.1591 315.5315 0001185  90.3678  75.4065 15.39597085  4950
STARLINK-35742          
1 66276U 25247M   25330.16670139  .00017076  00000+0  43621-3 0  9992
2 66276  53.1591 315.5278 0001256  90.4263  77.2090 15.39598892  5270
STARLINK-35708          
1 66277U 25247N   25330.16670139  .00022670  00000+0  57550-3 0  9995
2 66277  53.1588 315.4795 0001500  90.2169 101.3063 15.39595097  5278
STARLINK-35713          
1 66278U 25247P   25330.16670139  .00031341  00000+0  79131-3 0  9990
2 66278  53.1593 315.4278 0001686  98.1989 119.0850 15.39580274  5274
STARLINK-35724          
1 66279U 25247Q   25330.16670139  .00027024  00000+0  68400-3 0  9991
2 66279  53.1593 315.4237 0001145  91.6821 127.4737 15.39583646  4905
