CCSDS_OMM_VERS = 2.0
CREATION_DATE  = 
ORIGINATOR     = 

OBJECT_NAME    = STARLINK-35069
OBJECT_ID      = 2025-247D
CENTER_NAME    = EARTH
REF_FRAME      = TEME
TIME_SYSTEM    = UTC
MEAN_ELEMENT_THEORY = SGP/SGP4

EPOCH          = 2025-11-26T03:37:05.898144
MEAN_MOTION    = 15.39635095
ECCENTRICITY   = .0001392
INCLINATION    = 53.1607
RA_OF_ASC_NODE = 315.7598
ARG_OF_PERICENTER = 108.0280
MEAN_ANOMALY   = 252.0876

EPHEMERIS_TYPE = 0
CLASSIFICATION_TYPE = U
NORAD_CAT_ID   = 66268
ELEMENT_SET_NO = 999
REV_AT_EPOCH   = 513
BSTAR          = .16028E-2
MEAN_MOTION_DOT = .64284E-3
MEAN_MOTION_DDOT = 0

CCSDS_OMM_VERS = 2.0
CREATION_DATE  = 
ORIGINATOR     = 

OBJECT_NAME    = STARLINK-34910
OBJECT_ID      = 2025-247E
CENTER_NAME    = EARTH
REF_FRAME      = TEME
TIME_SYSTEM    = UTC
MEAN_ELEMENT_THEORY = SGP/SGP4

EPOCH          = 2025-11-26T04:00:03.000096
MEAN_MOTION    = 15.41066430
ECCENTRICITY   = .000105
INCLINATION    = 53.1599
RA_OF_ASC_NODE = 314.3196
ARG_OF_PERICENTER = 109.4830
MEAN_ANOMALY   = 287.8259

EPHEMERIS_TYPE = 0
CLASSIFICATION_TYPE = U
NORAD_CAT_ID   = 66269
ELEMENT_SET_NO = 999
REV_AT_EPOCH   = 522
BSTAR          = -.53165E-1
MEAN_MOTION_DOT = -.1988719E-1
MEAN_MOTION_DDOT = 0

CCSDS_OMM_VERS = 2.0
CREATION_DATE  = 
ORIGINATOR     = 

OBJECT_NAME    = STARLINK-35757
OBJECT_ID      = 2025-247F
CENTER_NAME    = EARTH
REF_FRAME      = TEME
TIME_SYSTEM    = UTC
MEAN_ELEMENT_THEORY = SGP/SGP4

EPOCH          = 2025-11-26T03:36:37.089792
MEAN_MOTION    = 15.39625744
ECCENTRICITY   = .0001577
INCLINATION    = 53.1606
RA_OF_ASC_NODE = 315.7585
ARG_OF_PERICENTER = 95.2742
MEAN_ANOMALY   = 264.8443

EPHEMERIS_TYPE = 0
CLASSIFICATION_TYPE = U
NORAD_CAT_ID   = 66270
ELEMENT_SET_NO = 999
REV_AT_EPOCH   = 518
BSTAR          = .15962E-2
MEAN_MOTION_DOT = .63999E-3
MEAN_MOTION_DDOT = 0

CCSDS_OMM_VERS = 2.0
CREATION_DATE  = 
ORIGINATOR     = 

OBJECT_NAME    = STARLINK-35745
OBJECT_ID      = 2025-247G
CENTER_NAME    = EARTH
REF_FRAME      = TEME
TIME_SYSTEM    = UTC
MEAN_ELEMENT_THEORY = SGP/SGP4

EPOCH          = 2025-11-26T04:00:03.000096
MEAN_MOTION    = 15.39598437
ECCENTRICITY   = .0001394
INCLINATION    = 53.1604
RA_OF_ASC_NODE = 315.6348
ARG_OF_PERICENTER = 90.2581
MEAN_ANOMALY   = 24.0119

EPHEMERIS_TYPE = 0
CLASSIFICATION_TYPE = U
NORAD_CAT_ID   = 66271
ELEMENT_SET_NO = 999
REV_AT_EPOCH   = 527
BSTAR          = .34921E-3
MEAN_MOTION_DOT = .13584E-3
MEAN_MOTION_DDOT = 0

CCSDS_OMM_VERS = 2.0
CREATION_DATE  = 
ORIGINATOR     = 

OBJECT_NAME    = STARLINK-35741
OBJECT_ID      = 2025-247H
CENTER_NAME    = EARTH
REF_FRAME      = TEME
TIME_SYSTEM    = UTC
MEAN_ELEMENT_THEORY = SGP/SGP4

EPOCH          = 2025-11-26T04:00:03.000096
MEAN_MOTION    = 15.39600158
ECCENTRICITY   = .0001432
INCLINATION    = 53.1603
RA_OF_ASC_NODE = 315.6312
ARG_OF_PERICENTER = 92.2981
MEAN_ANOMALY   = 23.8289

EPHEMERIS_TYPE = 0
CLASSIFICATION_TYPE = U
NORAD_CAT_ID   = 66272
ELEMENT_SET_NO = 999
REV_AT_EPOCH   = 527
BSTAR          = .35143E-3
MEAN_MOTION_DOT = .13673E-3
MEAN_MOTION_DDOT = 0

CCSDS_OMM_VERS = 2.0
CREATION_DATE  = 
ORIGINATOR     = 

OBJECT_NAME    = STARLINK-35730
OBJECT_ID      = 2025-247J
CENTER_NAME    = EARTH
REF_FRAME      = TEME
TIME_SYSTEM    = UTC
MEAN_ELEMENT_THEORY = SGP/SGP4

EPOCH          = 2025-11-26T04:00:03.000096
MEAN_MOTION    = 15.39574377
ECCENTRICITY   = .0001925
INCLINATION    = 53.1599
RA_OF_ASC_NODE = 315.5833
ARG_OF_PERICENTER = 92.1417
MEAN_ANOMALY   = 47.9181

EPHEMERIS_TYPE = 0
CLASSIFICATION_TYPE = U
NORAD_CAT_ID   = 66273
ELEMENT_SET_NO = 999
REV_AT_EPOCH   = 527
BSTAR          = .6539E-3
MEAN_MOTION_DOT = .25806E-3
MEAN_MOTION_DDOT = 0

CCSDS_OMM_VERS = 2.0
CREATION_DATE  = 
ORIGINATOR     = 

OBJECT_NAME    = STARLINK-35760
OBJECT_ID      = 2025-247K
CENTER_NAME    = EARTH
REF_FRAME      = TEME
TIME_SYSTEM    = UTC
MEAN_ELEMENT_THEORY = SGP/SGP4

EPOCH          = 2025-11-26T04:00:03.000096
MEAN_MOTION    = 15.39602237
ECCENTRICITY   = .0001932
INCLINATION    = 53.1600
RA_OF_ASC_NODE = 315.5796
ARG_OF_PERICENTER = 89.2834
MEAN_ANOMALY   = 52.5980

EPHEMERIS_TYPE = 0
CLASSIFICATION_TYPE = U
NORAD_CAT_ID   = 66274
ELEMENT_SET_NO = 999
REV_AT_EPOCH   = 495
BSTAR          = .36807E-3
MEAN_MOTION_DOT = .14342E-3
MEAN_MOTION_DDOT = 0

CCSDS_OMM_VERS = 2.0
CREATION_DATE  = 
ORIGINATOR     = 

OBJECT_NAME    = STARLINK-35752
OBJECT_ID      = 2025-247L
CENTER_NAME    = EARTH
REF_FRAME      = TEME
TIME_SYSTEM    = UTC
MEAN_ELEMENT_THEORY = SGP/SGP4

EPOCH          = 2025-11-26T04:00:03.000096
MEAN_MOTION    = 15.39597085
ECCENTRICITY   = .0001185
INCLINATION    = 53.1591
RA_OF_ASC_NODE = 315.5315
ARG_OF_PERICENTER = 90.3678
MEAN_ANOMALY   = 75.4065

EPHEMERIS_TYPE = 0
CLASSIFICATION_TYPE = U
NORAD_CAT_ID   = 66275
ELEMENT_SET_NO = 999
REV_AT_EPOCH   = 495
BSTAR          = .44047E-3
MEAN_MOTION_DOT = .17246E-3
MEAN_MOTION_DDOT = 0

CCSDS_OMM_VERS = 2.0
CREATION_DATE  = 
ORIGINATOR     = 

OBJECT_NAME    = STARLINK-35742
OBJECT_ID      = 2025-247M
CENTER_NAME    = EARTH
REF_FRAME      = TEME
TIME_SYSTEM    = UTC
MEAN_ELEMENT_THEORY = SGP/SGP4

EPOCH          = 2025-11-26T04:00:03.000096
MEAN_MOTION    = 15.39598892
ECCENTRICITY   = .0001256
INCLINATION    = 53.1591
RA_OF_ASC_NODE = 315.5278
ARG_OF_PERICENTER = 90.4263
MEAN_ANOMALY   = 77.2090

EPHEMERIS_TYPE = 0
CLASSIFICATION_TYPE = U
NORAD_CAT_ID   = 66276
ELEMENT_SET_NO = 999
REV_AT_EPOCH   = 527
BSTAR          = .43621E-3
MEAN_MOTION_DOT = .17076E-3
MEAN_MOTION_DDOT = 0

CCSDS_OMM_VERS = 2.0
CREATION_DATE  = 
ORIGINATOR     = 

OBJECT_NAME    = STARLINK-35708
OBJECT_ID      = 2025-247N
CENTER_NAME    = EARTH
REF_FRAME      = TEME
TIME_SYSTEM    = UTC
MEAN_ELEMENT_THEORY = SGP/SGP4

EPOCH          = 2025-11-26T04:00:03.000096
MEAN_MOTION    = 15.39595097
ECCENTRICITY   = .00015
INCLINATION    = 53.1588
RA_OF_ASC_NODE = 315.4795
ARG_OF_PERICENTER = 90.2169
MEAN_ANOMALY   = 101.3063

EPHEMERIS_TYPE = 0
CLASSIFICATION_TYPE = U
NORAD_CAT_ID   = 66277
ELEMENT_SET_NO = 999
REV_AT_EPOCH   = 527
BSTAR          = .5755E-3
MEAN_MOTION_DOT = .2267E-3
MEAN_MOTION_DDOT = 0

CCSDS_OMM_VERS = 2.0
CREATION_DATE  = 
ORIGINATOR     = 

OBJECT_NAME    = STARLINK-35713
OBJECT_ID      = 2025-247P
CENTER_NAME    = EARTH
REF_FRAME      = TEME
TIME_SYSTEM    = UTC
MEAN_ELEMENT_THEORY = SGP/SGP4

EPOCH          = 2025-11-26T04:00:03.000096
MEAN_MOTION    = 15.39580274
ECCENTRICITY   = .0001686
INCLINATION    = 53.1593
RA_OF_ASC_NODE = 315.4278
ARG_OF_PERICENTER = 98.1989
MEAN_ANOMALY   = 119.0850

EPHEMERIS_TYPE = 0
CLASSIFICATION_TYPE = U
NORAD_CAT_ID   = 66278
ELEMENT_SET_NO = 999
REV_AT_EPOCH   = 527
BSTAR          = .79131E-3
MEAN_MOTION_DOT = .31341E-3
MEAN_MOTION_DDOT = 0

CCSDS_OMM_VERS = 2.0
CREATION_DATE  = 
ORIGINATOR     = 

OBJECT_NAME    = STARLINK-35724
OBJECT_ID      = 2025-247Q
CENTER_NAME    = EARTH
REF_FRAME      = TEME
TIME_SYSTEM    = UTC
MEAN_ELEMENT_THEORY = SGP/SGP4

EPOCH          = 2025-11-26T04:00:03.000096
MEAN_MOTION    = 15.39583646
ECCENTRICITY   = .0001145
INCLINATION    = 53.1593
RA_OF_ASC_NODE = 315.4237
ARG_OF_PERICENTER = 91.6821
MEAN_ANOMALY   = 127.4737

EPHEMERIS_TYPE = 0
CLASSIFICATION_TYPE = U
NORAD_CAT_ID   = 66279
ELEMENT_SET_NO = 999
REV_AT_EPOCH   = 490
BSTAR          = .684E-3
MEAN_MOTION_DOT = .27024E-3
MEAN_MOTION_DDOT = 0

